[{"OBJECT_NAME":"STARLINK-35725","OBJECT_ID":"2026-016E","EPOCH":"2026-03-09T17:08:39.476256","MEAN_MOTION":15.75189465,"ECCENTRICITY":0.00010963,"INCLINATION":97.2845,"RA_OF_ASC_NODE":129.1483,"ARG_OF_PERICENTER":109.3056,"MEAN_ANOMALY":250.8328,"EPHEMERIS_TYPE":0,"CLASSIFICATION_TYPE":"U","NORAD_CAT_ID":67565,"ELEMENT_SET_NO":999,"REV_AT_EPOCH":680,"BSTAR":0.0018625049,"MEAN_MOTION_DOT":0.00287222,"MEAN_MOTION_DDOT":0},{"OBJECT_NAME":"FENGYUN 1C DEB","OBJECT_ID":"1999-025CUE","EPOCH":"2026-02-18T09:12:07.487136","MEAN_MOTION":15.64460458,"ECCENTRICITY":0.00384301,"INCLINATION":98.1181,"RA_OF_ASC_NODE":202.4936,"ARG_OF_PERICENTER":104.8925,"MEAN_ANOMALY":255.6593,"EPHEMERIS_TYPE":0,"CLASSIFICATION_TYPE":"U","NORAD_CAT_ID":32184,"ELEMENT_SET_NO":999,"REV_AT_EPOCH":99453,"BSTAR":0.002023567,"MEAN_MOTION_DOT":0.00206139,"MEAN_MOTION_DDOT":0}]
